STARLINK-3756           
1 52309U 22041BA  23321.13542019  .00000836  00000+0  70625-4 0  9994
2 52309  53.2184 275.9863 0001586  87.9471 272.1703 15.08838907 88513
STARLINK-3688           
1 52310U 22041BB  23320.27062269  .00002022  00000+0  14509-3 0  9991
2 52310  53.2172 279.9313 0001436  95.1431 264.9725 15.08844100 88387
STARLINK-3750           
1 52311U 22041BC  23320.26693517  .00004012  00000+0  26999-3 0  9994
2 52311  53.2170 279.8873 0001387 100.3010 259.8138 15.08846354 88387
STARLINK-3752           
1 52312U 22041BD  23321.15380910  .00001072  00000+0  85439-4 0  9992
2 52312  53.2179 275.8536 0001878  92.1461 267.9746 15.08841665 88523
STARLINK-3749           
1 52313U 22041BE  23321.15750789  .00011343  00000+0  72995-3 0  9992
2 52313  53.2166 275.8823 0001780  90.8845 269.2351 15.08822987 88525
SUPERVIEW NEO-1 01      
1 52320U 22043A   23321.14926656  .00009854  00000+0  42376-3 0  9993
2 52320  97.4285  38.7185 0001890  89.4590 270.6864 15.22844768 86378
SUPERVIEW NEO-1 02      
1 52322U 22043C   23321.18341863  .00010086  00000+0  43317-3 0  9995
2 52322  97.4280  38.8132 0001349  86.4286 273.7105 15.22883609 86397
STARLINK-3889           
1 52331U 22045A   23320.61653541  .00002468  00000+0  17308-3 0  9999
2 52331  53.2168  38.3116 0001635  86.2940 273.8239 15.08842411 88214
STARLINK-3831           
1 52332U 22045B   23320.62853349  .00004150  00000+0  27863-3 0  9996
2 52332  53.2177  38.2707 0001575  84.8318 275.2854 15.08848997 88210
STARLINK-3847           
1 52333U 22045C   23320.62389531  .00003753  00000+0  25370-3 0  9993
2 52333  53.2168  38.2836 0001462  86.4645 273.6515 15.08845269 88204
STARLINK-3880           
1 52334U 22045D   23320.94405199 -.00000649  00000+0 -22674-4 0  9996
2 52334  53.2195  36.8449 0002009  78.8237 281.2981 15.08840755 88251
STARLINK-3814           
1 52335U 22045E   23320.94037400  .00000729  00000+0  63886-4 0  9990
2 52335  53.2182  36.8619 0001256  82.7248 277.3887 15.08839524 88260
STARLINK-3823           
1 52336U 22045F   23320.91459155  .00001132  00000+0  89199-4 0  9997
2 52336  53.2192  36.7739 0001594  88.2286 271.8889 15.08839156 88264
STARLINK-3797           
1 52337U 22045G   23320.62024846 -.00000735  00000+0 -28106-4 0  9992
2 52337  53.2188  38.3006 0001648  67.1144 293.0022 15.08809262 88219
STARLINK-3815           
1 52338U 22045H   23320.91125862 -.00003108  00000+0 -15070-3 0  9997
2 52338  53.2194  23.0056 0002821  73.3226 286.8078 15.14454761 88462
STARLINK-3792           
1 52339U 22045J   23320.62752905  .00003374  00000+0  22996-3 0  9998
2 52339  53.2169  37.9048 0001449  98.5445 261.5711 15.08846023 88224
STARLINK-3818           
1 52340U 22045K   23320.88977417  .00001556  00000+0  11585-3 0  9997
2 52340  53.2181  27.0888 0001264  93.0263 267.0874 15.08839712 88380
