[{"OBJECT_NAME":"STARLINK-3756","OBJECT_ID":"2022-041BA","EPOCH":"2023-11-17T03:15:00.304416","MEAN_MOTION":15.08838907,"ECCENTRICITY":0.0001586,"INCLINATION":53.2184,"RA_OF_ASC_NODE":275.9863,"ARG_OF_PERICENTER":87.9471,"MEAN_ANOMALY":272.1703,"EPHEMERIS_TYPE":0,"CLASSIFICATION_TYPE":"U","NORAD_CAT_ID":52309,"ELEMENT_SET_NO":999,"REV_AT_EPOCH":8851,"BSTAR":7.0625e-5,"MEAN_MOTION_DOT":8.36e-6,"MEAN_MOTION_DDOT":0},{"OBJECT_NAME":"STARLINK-3688","OBJECT_ID":"2022-041BB","EPOCH":"2023-11-16T06:29:41.800416","MEAN_MOTION":15.088441,"ECCENTRICITY":0.0001436,"INCLINATION":53.2172,"RA_OF_ASC_NODE":279.9313,"ARG_OF_PERICENTER":95.1431,"MEAN_ANOMALY":264.9725,"EPHEMERIS_TYPE":0,"CLASSIFICATION_TYPE":"U","NORAD_CAT_ID":52310,"ELEMENT_SET_NO":999,"REV_AT_EPOCH":8838,"BSTAR":0.00014509,"MEAN_MOTION_DOT":2.022e-5,"MEAN_MOTION_DDOT":0},{"OBJECT_NAME":"STARLINK-3750","OBJECT_ID":"2022-041BC","EPOCH":"2023-11-16T06:24:23.198688","MEAN_MOTION":15.08846354,"ECCENTRICITY":0.0001387,"INCLINATION":53.217,"RA_OF_ASC_NODE":279.8873,"ARG_OF_PERICENTER":100.301,"MEAN_ANOMALY":259.8138,"EPHEMERIS_TYPE":0,"CLASSIFICATION_TYPE":"U","NORAD_CAT_ID":52311,"ELEMENT_SET_NO":999,"REV_AT_EPOCH":8838,"BSTAR":0.00026999,"MEAN_MOTION_DOT":4.012e-5,"MEAN_MOTION_DDOT":0},{"OBJECT_NAME":"STARLINK-3752","OBJECT_ID":"2022-041BD","EPOCH":"2023-11-17T03:41:29.106240","MEAN_MOTION":15.08841665,"ECCENTRICITY":0.0001878,"INCLINATION":53.2179,"RA_OF_ASC_NODE":275.8536,"ARG_OF_PERICENTER":92.1461,"MEAN_ANOMALY":267.9746,"EPHEMERIS_TYPE":0,"CLASSIFICATION_TYPE":"U","NORAD_CAT_ID":52312,"ELEMENT_SET_NO":999,"REV_AT_EPOCH":8852,"BSTAR":8.5439e-5,"MEAN_MOTION_DOT":1.072e-5,"MEAN_MOTION_DDOT":0},{"OBJECT_NAME":"STARLINK-3749","OBJECT_ID":"2022-041BE","EPOCH":"2023-11-17T03:46:48.681696","MEAN_MOTION":15.08822987,"ECCENTRICITY":0.000178,"INCLINATION":53.2166,"RA_OF_ASC_NODE":275.8823,"ARG_OF_PERICENTER":90.8845,"MEAN_ANOMALY":269.2351,"EPHEMERIS_TYPE":0,"CLASSIFICATION_TYPE":"U","NORAD_CAT_ID":52313,"ELEMENT_SET_NO":999,"REV_AT_EPOCH":8852,"BSTAR":0.00072995,"MEAN_MOTION_DOT":0.00011343,"MEAN_MOTION_DDOT":0},{"OBJECT_NAME":"SUPERVIEW NEO-1 01","OBJECT_ID":"2022-043A","EPOCH":"2023-11-17T03:34:56.630784","MEAN_MOTION":15.22844768,"ECCENTRICITY":0.000189,"INCLINATION":97.4285,"RA_OF_ASC_NODE":38.7185,"ARG_OF_PERICENTER":89.459,"MEAN_ANOMALY":270.6864,"EPHEMERIS_TYPE":0,"CLASSIFICATION_TYPE":"U","NORAD_CAT_ID":52320,"ELEMENT_SET_NO":999,"REV_AT_EPOCH":8637,"BSTAR":0.00042376,"MEAN_MOTION_DOT":9.854e-5,"MEAN_MOTION_DDOT":0},{"OBJECT_NAME":"SUPERVIEW NEO-1 02","OBJECT_ID":"2022-043C","EPOCH":"2023-11-17T04:24:07.369632","MEAN_MOTION":15.22883609,"ECCENTRICITY":0.0001349,"INCLINATION":97.428,"RA_OF_ASC_NODE":38.8132,"ARG_OF_PERICENTER":86.4286,"MEAN_ANOMALY":273.7105,"EPHEMERIS_TYPE":0,"CLASSIFICATION_TYPE":"U","NORAD_CAT_ID":52322,"ELEMENT_SET_NO":999,"REV_AT_EPOCH":8639,"BSTAR":0.00043317,"MEAN_MOTION_DOT":0.00010086,"MEAN_MOTION_DDOT":0},{"OBJECT_NAME":"STARLINK-3889","OBJECT_ID":"2022-045A","EPOCH":"2023-11-16T14:47:48.659424","MEAN_MOTION":15.08842411,"ECCENTRICITY":0.0001635,"INCLINATION":53.2168,"RA_OF_ASC_NODE":38.3116,"ARG_OF_PERICENTER":86.294,"MEAN_ANOMALY":273.8239,"EPHEMERIS_TYPE":0,"CLASSIFICATION_TYPE":"U","NORAD_CAT_ID":52331,"ELEMENT_SET_NO":999,"REV_AT_EPOCH":8821,"BSTAR":0.00017308,"MEAN_MOTION_DOT":2.468e-5,"MEAN_MOTION_DDOT":0},{"OBJECT_NAME":"STARLINK-3831","OBJECT_ID":"2022-045B","EPOCH":"2023-11-16T15:05:05.293536","MEAN_MOTION":15.08848997,"ECCENTRICITY":0.0001575,"INCLINATION":53.2177,"RA_OF_ASC_NODE":38.2707,"ARG_OF_PERICENTER":84.8318,"MEAN_ANOMALY":275.2854,"EPHEMERIS_TYPE":0,"CLASSIFICATION_TYPE":"U","NORAD_CAT_ID":52332,"ELEMENT_SET_NO":999,"REV_AT_EPOCH":8821,"BSTAR":0.00027863,"MEAN_MOTION_DOT":4.15e-5,"MEAN_MOTION_DDOT":0},{"OBJECT_NAME":"STARLINK-3847","OBJECT_ID":"2022-045C","EPOCH":"2023-11-16T14:58:24.554784","MEAN_MOTION":15.08845269,"ECCENTRICITY":0.0001462,"INCLINATION":53.2168,"RA_OF_ASC_NODE":38.2836,"ARG_OF_PERICENTER":86.4645,"MEAN_ANOMALY":273.6515,"EPHEMERIS_TYPE":0,"CLASSIFICATION_TYPE":"U","NORAD_CAT_ID":52333,"ELEMENT_SET_NO":999,"REV_AT_EPOCH":8820,"BSTAR":0.0002537,"MEAN_MOTION_DOT":3.753e-5,"MEAN_MOTION_DDOT":0},{"OBJECT_NAME":"STARLINK-3880","OBJECT_ID":"2022-045D","EPOCH":"2023-11-16T22:39:26.091936","MEAN_MOTION":15.08840755,"ECCENTRICITY":0.0002009,"INCLINATION":53.2195,"RA_OF_ASC_NODE":36.8449,"ARG_OF_PERICENTER":78.8237,"MEAN_ANOMALY":281.2981,"EPHEMERIS_TYPE":0,"CLASSIFICATION_TYPE":"U","NORAD_CAT_ID":52334,"ELEMENT_SET_NO":999,"REV_AT_EPOCH":8825,"BSTAR":-2.2674e-5,"MEAN_MOTION_DOT":-6.49e-6,"MEAN_MOTION_DDOT":0},{"OBJECT_NAME":"STARLINK-3814","OBJECT_ID":"2022-045E","EPOCH":"2023-11-16T22:34:08.313600","MEAN_MOTION":15.08839524,"ECCENTRICITY":0.0001256,"INCLINATION":53.2182,"RA_OF_ASC_NODE":36.8619,"ARG_OF_PERICENTER":82.7248,"MEAN_ANOMALY":277.3887,"EPHEMERIS_TYPE":0,"CLASSIFICATION_TYPE":"U","NORAD_CAT_ID":52335,"ELEMENT_SET_NO":999,"REV_AT_EPOCH":8826,"BSTAR":6.3886e-5,"MEAN_MOTION_DOT":7.29e-6,"MEAN_MOTION_DDOT":0},{"OBJECT_NAME":"STARLINK-3823","OBJECT_ID":"2022-045F","EPOCH":"2023-11-16T21:57:00.709920","MEAN_MOTION":15.08839156,"ECCENTRICITY":0.0001594,"INCLINATION":53.2192,"RA_OF_ASC_NODE":36.7739,"ARG_OF_PERICENTER":88.2286,"MEAN_ANOMALY":271.8889,"EPHEMERIS_TYPE":0,"CLASSIFICATION_TYPE":"U","NORAD_CAT_ID":52336,"ELEMENT_SET_NO":999,"REV_AT_EPOCH":8826,"BSTAR":8.9199e-5,"MEAN_MOTION_DOT":1.132e-5,"MEAN_MOTION_DDOT":0},{"OBJECT_NAME":"STARLINK-3797","OBJECT_ID":"2022-045G","EPOCH":"2023-11-16T14:53:09.466944","MEAN_MOTION":15.08809262,"ECCENTRICITY":0.0001648,"INCLINATION":53.2188,"RA_OF_ASC_NODE":38.3006,"ARG_OF_PERICENTER":67.1144,"MEAN_ANOMALY":293.0022,"EPHEMERIS_TYPE":0,"CLASSIFICATION_TYPE":"U","NORAD_CAT_ID":52337,"ELEMENT_SET_NO":999,"REV_AT_EPOCH":8821,"BSTAR":-2.8106e-5,"MEAN_MOTION_DOT":-7.35e-6,"MEAN_MOTION_DDOT":0},{"OBJECT_NAME":"STARLINK-3815","OBJECT_ID":"2022-045H","EPOCH":"2023-11-16T21:52:12.744768","MEAN_MOTION":15.14454761,"ECCENTRICITY":0.0002821,"INCLINATION":53.2194,"RA_OF_ASC_NODE":23.0056,"ARG_OF_PERICENTER":73.3226,"MEAN_ANOMALY":286.8078,"EPHEMERIS_TYPE":0,"CLASSIFICATION_TYPE":"U","NORAD_CAT_ID":52338,"ELEMENT_SET_NO":999,"REV_AT_EPOCH":8846,"BSTAR":-0.0001507,"MEAN_MOTION_DOT":-3.108e-5,"MEAN_MOTION_DDOT":0},{"OBJECT_NAME":"STARLINK-3792","OBJECT_ID":"2022-045J","EPOCH":"2023-11-16T15:03:38.509920","MEAN_MOTION":15.08846023,"ECCENTRICITY":0.0001449,"INCLINATION":53.2169,"RA_OF_ASC_NODE":37.9048,"ARG_OF_PERICENTER":98.5445,"MEAN_ANOMALY":261.5711,"EPHEMERIS_TYPE":0,"CLASSIFICATION_TYPE":"U","NORAD_CAT_ID":52339,"ELEMENT_SET_NO":999,"REV_AT_EPOCH":8822,"BSTAR":0.00022996,"MEAN_MOTION_DOT":3.374e-5,"MEAN_MOTION_DDOT":0},{"OBJECT_NAME":"STARLINK-3818","OBJECT_ID":"2022-045K","EPOCH":"2023-11-16T21:21:16.488288","MEAN_MOTION":15.08839712,"ECCENTRICITY":0.0001264,"INCLINATION":53.2181,"RA_OF_ASC_NODE":27.0888,"ARG_OF_PERICENTER":93.0263,"MEAN_ANOMALY":267.0874,"EPHEMERIS_TYPE":0,"CLASSIFICATION_TYPE":"U","NORAD_CAT_ID":52340,"ELEMENT_SET_NO":999,"REV_AT_EPOCH":8838,"BSTAR":0.00011585,"MEAN_MOTION_DOT":1.556e-5,"MEAN_MOTION_DDOT":0}]
